     2              NAVIGATION DATA                         RINEX VERSION / TYPE
CCRINEXN V1.6.0 UX  CDDIS               06-MAY-24 23:31     PGM / RUN BY / DATE 
IGS BROADCAST EPHEMERIS FILE                                COMMENT             
    0.2235D-07  0.2235D-07 -0.1192D-06 -0.1192D-06          ION ALPHA           
    0.1270D+06  0.8192D+05 -0.1966D+06  0.0000D+00          ION BETA            
    0.931322574615D-09 0.532907051820D-14   233472     2313 DELTA-UTC: A0,A1,T,W
    18                                                      LEAP SECONDS        
                                                            END OF HEADER       
21 24  5  5 17 59 44.0 0.123364850879D-03-0.216004991671D-11 0.000000000000D+00
    0.110000000000D+02-0.890000000000D+02 0.421410410578D-08-0.264683615252D+01
   -0.439397990704D-05 0.251757507213D-01 0.112112611532D-04 0.515370258903D+04
    0.647840000000D+05-0.257045030594D-06 0.230797807666D+01 0.379979610443D-06
    0.961700501018D+00 0.161250000000D+03-0.578797829756D+00-0.760817405384D-08
   -0.336799743347D-09 0.100000000000D+01 0.231300000000D+04 0.000000000000D+00
    0.200000000000D+01 0.000000000000D+00-0.102445483208D-07 0.110000000000D+02
    0.614760000000D+05 0.400000000000D+01 0.000000000000D+00 0.000000000000D+00
24 24  5  5 17 59 44.0-0.466738827527D-03-0.375166564481D-11 0.000000000000D+00
    0.100000000000D+01-0.459375000000D+02 0.488627496154D-08 0.193761765602D+01
   -0.241957604885D-05 0.152413665783D-01 0.126305967569D-04 0.515372409439D+04
    0.647840000000D+05-0.240281224251D-06-0.839009587660D+00-0.324100255966D-06
    0.933979893086D+00 0.121468750000D+03 0.976207111219D+00-0.824355766298D-08
   -0.407159816983D-09 0.100000000000D+01 0.231300000000D+04 0.000000000000D+00
    0.200000000000D+01 0.000000000000D+00 0.232830643654D-08 0.100000000000D+01
    0.576180000000D+05 0.400000000000D+01 0.000000000000D+00 0.000000000000D+00
32 24  5  5 17 59 44.0-0.618409831077D-03 0.113686837722D-12 0.000000000000D+00
    0.100000000000D+02-0.284687500000D+02 0.489770400903D-08-0.179200597773D+01
   -0.146031379700D-05 0.776775740087D-02 0.389851629734D-05 0.515366002655D+04
    0.647840000000D+05 0.210478901863D-06-0.180049616909D+01-0.100582838059D-06
    0.961335933055D+00 0.305968750000D+03-0.213465924636D+01-0.830927468607D-08
   -0.167506977338D-09 0.100000000000D+01 0.231300000000D+04 0.000000000000D+00
    0.200000000000D+01 0.000000000000D+00 0.931322574616D-09 0.100000000000D+02
    0.595920000000D+05 0.400000000000D+01 0.000000000000D+00 0.000000000000D+00
 1 24  5  5 18  0  0.0 0.278003979474D-03-0.454747350886D-11 0.000000000000D+00
    0.230000000000D+02 0.113218750000D+03 0.596846289615D-08-0.105479767443D+01
    0.619702041149D-05 0.134067203617D-01 0.778213143349D-05 0.515376143646D+04
    0.648000000000D+05 0.117346644402D-06 0.320403488628D+00 0.257045030594D-06
    0.955037266118D+00 0.226906250000D+03 0.103220253897D+01-0.833284709653D-08
    0.469662420468D-09 0.100000000000D+01 0.231300000000D+04 0.000000000000D+00
    0.200000000000D+01 0.630000000000D+02-0.195577740669D-07 0.230000000000D+02
    0.576180000000D+05 0.400000000000D+01 0.000000000000D+00 0.000000000000D+00
 2 24  5  5 18  0  0.0-0.441468786448D-03 0.670752342558D-11 0.000000000000D+00
    0.520000000000D+02-0.808125000000D+02 0.421731852539D-08-0.226639066868D+01
   -0.402145087719D-05 0.159897224512D-01 0.109579414129D-04 0.515370671463D+04
    0.648000000000D+05 0.763684511185D-07 0.231503853917D+01 0.318512320519D-06
    0.967439032713D+00 0.167843750000D+03-0.119438064977D+01-0.768782022857D-08
   -0.300369654459D-09 0.100000000000D+01 0.231300000000D+04 0.000000000000D+00
    0.200000000000D+01 0.000000000000D+00-0.176951289177D-07 0.520000000000D+02
    0.598920000000D+05 0.400000000000D+01 0.000000000000D+00 0.000000000000D+00
 3 24  5  5 18  0  0.0 0.347799621522D-03 0.200088834390D-10 0.000000000000D+00
    0.520000000000D+02 0.569687500000D+02 0.406659796156D-08 0.490491082534D+00
    0.301562249660D-05 0.542282522656D-02 0.914745032787D-05 0.515373209381D+04
    0.648000000000D+05-0.104308128357D-06-0.283443379912D+01 0.856816768646D-07
    0.984327294029D+00 0.215593750000D+03 0.107510200014D+01-0.791747265166D-08
    0.430017911972D-09 0.100000000000D+01 0.231300000000D+04 0.000000000000D+00
    0.200000000000D+01 0.000000000000D+00 0.139698386192D-08 0.520000000000D+02
    0.585480000000D+05 0.400000000000D+01 0.000000000000D+00 0.000000000000D+00
 4 24  5  5 18  0  0.0 0.354422722012D-03 0.852651282912D-11 0.000000000000D+00
    0.120000000000D+02-0.362187500000D+02 0.480662878681D-08-0.284161355528D+01
   -0.189431011677D-05 0.282124197111D-02 0.465661287308D-05 0.515374672127D+04
    0.648000000000D+05-0.484287738800D-07-0.175565389858D+01-0.204890966415D-07
    0.964321545509D+00 0.292031250000D+03-0.294064868392D+01-0.830356016233D-08
   -0.238224208709D-09 0.100000000000D+01 0.231300000000D+04 0.000000000000D+00
    0.200000000000D+01 0.000000000000D+00-0.465661287308D-08 0.524000000000D+03
    0.576180000000D+05 0.400000000000D+01 0.000000000000D+00 0.000000000000D+00
 5 24  5  5 18  0  0.0-0.171628780663D-03-0.136424205266D-11 0.000000000000D+00
    0.240000000000D+02 0.498437500000D+02 0.424303388225D-08-0.214353726462D+01
    0.258162617683D-05 0.581416429486D-02 0.993534922600D-05 0.515360456085D+04
    0.648000000000D+05 0.121071934700D-06-0.288546820834D+01-0.223517417908D-07
    0.971314966870D+00 0.193156250000D+03 0.124212713012D+01-0.784139805427D-08
    0.550380068396D-09 0.100000000000D+01 0.231300000000D+04 0.000000000000D+00
    0.200000000000D+01 0.000000000000D+00-0.107102096081D-07 0.240000000000D+02
    0.576180000000D+05 0.400000000000D+01 0.000000000000D+00 0.000000000000D+00
 6 24  5  5 18  0  0.0 0.288274604827D-03-0.190993887372D-10 0.000000000000D+00
    0.188000000000D+03-0.758437500000D+02 0.367372445394D-08 0.178519779690D+01
   -0.375136733055D-05 0.302484165877D-02 0.124275684357D-04 0.515361866760D+04
    0.648000000000D+05 0.484287738800D-07 0.241284186299D+01-0.260770320892D-07
    0.989827760677D+00 0.150250000000D+03-0.694483352156D+00-0.763138930657D-08
   -0.356443418728D-09 0.100000000000D+01 0.231300000000D+04 0.000000000000D+00
    0.200000000000D+01 0.000000000000D+00 0.372529029846D-08 0.188000000000D+03
    0.576180000000D+05 0.400000000000D+01 0.000000000000D+00 0.000000000000D+00
 7 24  5  5 18  0  0.0-0.122425612062D-03-0.829913915368D-11 0.000000000000D+00
    0.370000000000D+02-0.975000000000D+01 0.459483425043D-08 0.917248920334D+00
   -0.422820448875D-06 0.184613111196D-01 0.125709921122D-04 0.515364799309D+04
    0.648000000000D+05-0.257045030594D-06-0.742356058933D+00 0.447034835815D-07
    0.950386238464D+00 0.137000000000D+03-0.212774242339D+01-0.825034365993D-08
   -0.517164399116D-09 0.100000000000D+01 0.231300000000D+04 0.000000000000D+00
    0.200000000000D+01 0.000000000000D+00-0.111758708954D-07 0.370000000000D+02
    0.623880000000D+05 0.400000000000D+01 0.000000000000D+00 0.000000000000D+00
 8 24  5  5 18  0  0.0 0.161889474839D-03 0.211457518162D-10 0.000000000000D+00
    0.430000000000D+02-0.268437500000D+02 0.521807449660D-08-0.252134734543D+01
   -0.154227018356D-05 0.945464055985D-02 0.198744237423D-05 0.515362448692D+04
    0.648000000000D+05-0.577419996262D-07 0.131759493816D+01-0.294297933578D-06
    0.953231495632D+00 0.339187500000D+03 0.360235097946D+00-0.864964600676D-08
   -0.104290058385D-09 0.100000000000D+01 0.231300000000D+04 0.000000000000D+00
    0.200000000000D+01 0.000000000000D+00 0.465661287308D-08 0.430000000000D+02
    0.576180000000D+05 0.400000000000D+01 0.000000000000D+00 0.000000000000D+00
10 24  5  5 18  0  0.0-0.183014199138D-04-0.591171556152D-11 0.000000000000D+00
    0.155000000000D+03 0.445625000000D+02 0.404409702430D-08-0.533537389962D+00
    0.224821269512D-05 0.929680245463D-02 0.950321555138D-05 0.515368718147D+04
    0.648000000000D+05 0.204890966415D-07-0.283700073466D+01 0.128522515297D-06
    0.983995837753D+00 0.208593750000D+03-0.236958751984D+01-0.794818821680D-08
    0.416088760338D-09 0.100000000000D+01 0.231300000000D+04 0.000000000000D+00
    0.200000000000D+01 0.000000000000D+00 0.232830643654D-08 0.155000000000D+03
    0.595080000000D+05 0.400000000000D+01 0.000000000000D+00 0.000000000000D+00
11 24  5  5 18  0  0.0-0.654670875519D-03-0.966338120634D-11 0.000000000000D+00
    0.172000000000D+03-0.819375000000D+02 0.415945897245D-08 0.305207549819D+01
   -0.425986945629D-05 0.126172648743D-02 0.126529484987D-04 0.515370804596D+04
    0.648000000000D+05-0.223517417908D-07 0.244637949842D+01-0.298023223877D-07
    0.966354088778D+00 0.134906250000D+03-0.255703848550D+01-0.786461330700D-08
   -0.285369029623D-09 0.100000000000D+01 0.231300000000D+04 0.000000000000D+00
    0.200000000000D+01 0.000000000000D+00-0.884756445885D-08 0.940000000000D+03
    0.576180000000D+05 0.400000000000D+01 0.000000000000D+00 0.000000000000D+00
12 24  5  5 18  0  0.0-0.502727460116D-03-0.341060513165D-11 0.000000000000D+00
    0.270000000000D+02 0.113593750000D+03 0.464483633322D-08 0.186285862594D+00
    0.564195215702D-05 0.884750543628D-02 0.791065394878D-05 0.515366193962D+04
    0.648000000000D+05-0.819563865662D-07 0.372751305697D+00-0.186264514923D-07
    0.962975311238D+00 0.228906250000D+03 0.144535723551D+01-0.843035115796D-08
    0.526450500205D-09 0.100000000000D+01 0.231300000000D+04 0.000000000000D+00
    0.200000000000D+01 0.000000000000D+00-0.125728547573D-07 0.270000000000D+02
    0.576180000000D+05 0.400000000000D+01 0.000000000000D+00 0.000000000000D+00
